{
  "type": "FeatureCollection",
  "features": [
    {
      "type": "Feature",
      "properties": {
        "norad_id": 66597,
        "name": "STARLINK-35820",
        "group": "last-30-days",
        "lat": 0.7056828417779466,
        "lon": 17.069210550363323,
        "alt_km": 414.65534650875543,
        "timestamp": "2025-12-11T20:41:13.847652+00:00",
        "meta_object_name": "STARLINK-35820",
        "meta_object_id": "2025-270K",
        "meta_epoch": "2025-12-11T14:00:01.999872",
        "meta_mean_motion": 15.50598902,
        "meta_eccentricity": 0.00019624,
        "meta_inclination": 42.9997,
        "meta_ra_of_asc_node": 199.4566,
        "meta_arg_of_pericenter": 260.1172,
        "meta_mean_anomaly": 161.7075,
        "meta_ephemeris_type": 0,
        "meta_classification_type": "U",
        "meta_norad_cat_id": 66597,
        "meta_element_set_no": 999,
        "meta_rev_at_epoch": 432,
        "meta_bstar": -0.001725979,
        "meta_mean_motion_dot": -0.00100385,
        "meta_mean_motion_ddot": 0,
        "tle_line1": "1 66597U 25270K   25345.58335648 -.00100385  00000+0 -17260-2 0  9996",
        "tle_line2": "2 66597  42.9997 199.4566 0001962 260.1172 161.7075 15.50598902  4322"
      },
      "geometry": {
        "type": "Point",
        "coordinates": [
          17.069210550363323,
          0.7056828417779466
        ]
      }
    },
    {
      "type": "Feature",
      "properties": {
        "norad_id": 66598,
        "name": "STARLINK-35981",
        "group": "last-30-days",
        "lat": -0.679851521743285,
        "lon": 18.55086290983402,
        "alt_km": 414.5655985931544,
        "timestamp": "2025-12-11T20:41:13.847664+00:00",
        "meta_object_name": "STARLINK-35981",
        "meta_object_id": "2025-270L",
        "meta_epoch": "2025-12-11T14:00:01.999872",
        "meta_mean_motion": 15.50860535,
        "meta_eccentricity": 0.00017347,
        "meta_inclination": 42.9998,
        "meta_ra_of_asc_node": 199.4516,
        "meta_arg_of_pericenter": 252.5221,
        "meta_mean_anomaly": 171.1893,
        "meta_ephemeris_type": 0,
        "meta_classification_type": "U",
        "meta_norad_cat_id": 66598,
        "meta_element_set_no": 999,
        "meta_rev_at_epoch": 405,
        "meta_bstar": -0.0090360863,
        "meta_mean_motion_dot": -0.00502832,
        "meta_mean_motion_ddot": 0,
        "tle_line1": "1 66598U 25270L   25345.58335648 -.00502832  00000+0 -90361-2 0  9993",
        "tle_line2": "2 66598  42.9998 199.4516 0001734 252.5221 171.1893 15.50860535  4053"
      },
      "geometry": {
        "type": "Point",
        "coordinates": [
          18.55086290983402,
          -0.679851521743285
        ]
      }
    },
    {
      "type": "Feature",
      "properties": {
        "norad_id": 66599,
        "name": "STARLINK-35930",
        "group": "last-30-days",
        "lat": -1.870968554507192,
        "lon": 19.826475992118237,
        "alt_km": 415.2849149641297,
        "timestamp": "2025-12-11T20:41:13.847674+00:00",
        "meta_object_name": "STARLINK-35930",
        "meta_object_id": "2025-270M",
        "meta_epoch": "2025-12-11T14:00:01.999872",
        "meta_mean_motion": 15.50480559,
        "meta_eccentricity": 2.644e-05,
        "meta_inclination": 42.9997,
        "meta_ra_of_asc_node": 199.4474,
        "meta_arg_of_pericenter": 309.7334,
        "meta_mean_anomaly": 115.9134,
        "meta_ephemeris_type": 0,
        "meta_classification_type": "U",
        "meta_norad_cat_id": 66599,
        "meta_element_set_no": 999,
        "meta_rev_at_epoch": 421,
        "meta_bstar": 0.0017390402,
        "meta_mean_motion_dot": 0.00102666,
        "meta_mean_motion_ddot": 0,
        "tle_line1": "1 66599U 25270M   25345.58335648  .00102666  00000+0  17390-2 0  9994",
        "tle_line2": "2 66599  42.9997 199.4474 0000264 309.7334 115.9134 15.50480559  4219"
      },
      "geometry": {
        "type": "Point",
        "coordinates": [
          19.826475992118237,
          -1.870968554507192
        ]
      }
    },
    {
      "type": "Feature",
      "properties": {
        "norad_id": 66600,
        "name": "STARLINK-35980",
        "group": "last-30-days",
        "lat": -3.208979234397823,
        "lon": 21.2620529403341,
        "alt_km": 415.0610359770626,
        "timestamp": "2025-12-11T20:41:13.847684+00:00",
        "meta_object_name": "STARLINK-35980",
        "meta_object_id": "2025-270N",
        "meta_epoch": "2025-12-11T14:00:01.999872",
        "meta_mean_motion": 15.50603673,
        "meta_eccentricity": 0.0002418,
        "meta_inclination": 42.9998,
        "meta_ra_of_asc_node": 199.4427,
        "meta_arg_of_pericenter": 264.0113,
        "meta_mean_anomaly": 163.5599,
        "meta_ephemeris_type": 0,
        "meta_classification_type": "U",
        "meta_norad_cat_id": 66600,
        "meta_element_set_no": 999,
        "meta_rev_at_epoch": 411,
        "meta_bstar": -0.0018172221,
        "meta_mean_motion_dot": -0.00105628,
        "meta_mean_motion_ddot": 0,
        "tle_line1": "1 66600U 25270N   25345.58335648 -.00105628  00000+0 -18172-2 0  9999",
        "tle_line2": "2 66600  42.9998 199.4427 0002418 264.0113 163.5599 15.50603673  4119"
      },
      "geometry": {
        "type": "Point",
        "coordinates": [
          21.2620529403341,
          -3.208979234397823
        ]
      }
    },
    {
      "type": "Feature",
      "properties": {
        "norad_id": 66601,
        "name": "STARLINK-35978",
        "group": "last-30-days",
        "lat": -4.513186670020418,
        "lon": 22.666950582888106,
        "alt_km": 415.08309153708433,
        "timestamp": "2025-12-11T20:41:13.847699+00:00",
        "meta_object_name": "STARLINK-35978",
        "meta_object_id": "2025-270P",
        "meta_epoch": "2025-12-11T14:00:01.999872",
        "meta_mean_motion": 15.50589332,
        "meta_eccentricity": 0.00020202,
        "meta_inclination": 42.9998,
        "meta_ra_of_asc_node": 199.4378,
        "meta_arg_of_pericenter": 258.1027,
        "meta_mean_anomaly": 171.3893,
        "meta_ephemeris_type": 0,
        "meta_classification_type": "U",
        "meta_norad_cat_id": 66601,
        "meta_element_set_no": 999,
        "meta_rev_at_epoch": 405,
        "meta_bstar": -0.0014129526,
        "meta_mean_motion_dot": -0.00082401,
        "meta_mean_motion_ddot": 0,
        "tle_line1": "1 66601U 25270P   25345.58335648 -.00082401  00000+0 -14130-2 0  9993",
        "tle_line2": "2 66601  42.9998 199.4378 0002020 258.1027 171.3893 15.50589332  4054"
      },
      "geometry": {
        "type": "Point",
        "coordinates": [
          22.666950582888106,
          -4.513186670020418
        ]
      }
    },
    {
      "type": "Feature",
      "properties": {
        "norad_id": 66602,
        "name": "STARLINK-36050",
        "group": "last-30-days",
        "lat": -5.154148921820725,
        "lon": 23.35989847478684,
        "alt_km": 419.61093290421286,
        "timestamp": "2025-12-11T20:41:13.847710+00:00",
        "meta_object_name": "STARLINK-36050",
        "meta_object_id": "2025-270Q",
        "meta_epoch": "2025-12-11T14:00:01.999872",
        "meta_mean_motion": 15.50284932,
        "meta_eccentricity": 0.00016679,
        "meta_inclination": 42.9996,
        "meta_ra_of_asc_node": 199.4328,
        "meta_arg_of_pericenter": 263.1005,
        "meta_mean_anomaly": 168.2533,
        "meta_ephemeris_type": 0,
        "meta_classification_type": "U",
        "meta_norad_cat_id": 66602,
        "meta_element_set_no": 999,
        "meta_rev_at_epoch": 411,
        "meta_bstar": -0.039883413,
        "meta_mean_motion_dot": -0.02060913,
        "meta_mean_motion_ddot": 0,
        "tle_line1": "1 66602U 25270Q   25345.58335648 -.02060913  00000+0 -39883-1 0  9991",
        "tle_line2": "2 66602  42.9996 199.4328 0001667 263.1005 168.2533 15.50284932  4117"
      },
      "geometry": {
        "type": "Point",
        "coordinates": [
          23.35989847478684,
          -5.154148921820725
        ]
      }
    },
    {
      "type": "Feature",
      "properties": {
        "norad_id": 66603,
        "name": "STARLINK-36048",
        "group": "last-30-days",
        "lat": -7.187221653190636,
        "lon": 25.574739803161258,
        "alt_km": 415.0820181980198,
        "timestamp": "2025-12-11T20:41:13.847720+00:00",
        "meta_object_name": "STARLINK-36048",
        "meta_object_id": "2025-270R",
        "meta_epoch": "2025-12-11T14:00:01.999872",
        "meta_mean_motion": 15.50870084,
        "meta_eccentricity": 0.00017973,
        "meta_inclination": 42.9997,
        "meta_ra_of_asc_node": 199.4276,
        "meta_arg_of_pericenter": 249.1215,
        "meta_mean_anomaly": 184.1611,
        "meta_ephemeris_type": 0,
        "meta_classification_type": "U",
        "meta_norad_cat_id": 66603,
        "meta_element_set_no": 999,
        "meta_rev_at_epoch": 411,
        "meta_bstar": -0.0092764324,
        "meta_mean_motion_dot": -0.00515554,
        "meta_mean_motion_ddot": 0,
        "tle_line1": "1 66603U 25270R   25345.58335648 -.00515554  00000+0 -92764-2 0  9994",
        "tle_line2": "2 66603  42.9997 199.4276 0001797 249.1215 184.1611 15.50870084  4115"
      },
      "geometry": {
        "type": "Point",
        "coordinates": [
          25.574739803161258,
          -7.187221653190636
        ]
      }
    }
  ]
}